[{"OBJECT_NAME":"TIANMU-1 22","OBJECT_ID":"2023-208D","EPOCH":"2026-03-09T22:39:05.738688","MEAN_MOTION":15.29457749,"ECCENTRICITY":0.00031332,"INCLINATION":97.4379,"RA_OF_ASC_NODE":184.9419,"ARG_OF_PERICENTER":351.9312,"MEAN_ANOMALY":8.1877,"EPHEMERIS_TYPE":0,"CLASSIFICATION_TYPE":"U","NORAD_CAT_ID":58663,"ELEMENT_SET_NO":999,"REV_AT_EPOCH":12215,"BSTAR":0.00038239675,"MEAN_MOTION_DOT":0.00010851,"MEAN_MOTION_DDOT":0},{"OBJECT_NAME":"STARLINK-36454","OBJECT_ID":"2026-008AB","EPOCH":"2026-03-09T10:10:08.508576","MEAN_MOTION":15.27592972,"ECCENTRICITY":0.00052206,"INCLINATION":43.0057,"RA_OF_ASC_NODE":206.528,"ARG_OF_PERICENTER":293.9378,"MEAN_ANOMALY":66.0927,"EPHEMERIS_TYPE":0,"CLASSIFICATION_TYPE":"U","NORAD_CAT_ID":67470,"ELEMENT_SET_NO":999,"REV_AT_EPOCH":953,"BSTAR":0.001028495,"MEAN_MOTION_DOT":0.00028167,"MEAN_MOTION_DDOT":0}]
